{"type": "FeatureCollection", "features": [{"type": "Feature", "properties": {"norad_id": 25590, "name": "COSMOS 2361", "group": "musson", "lat": -65.11919492589256, "lon": 168.72590050449662, "alt_km": 974.6139534808162, "timestamp": "2025-12-27T10:28:59.064358+00:00", "meta": {"OBJECT_NAME": "COSMOS 2361", "OBJECT_ID": "1998-076A", "EPOCH": "2025-12-27T04:05:37.857120", "MEAN_MOTION": 13.73219116, "ECCENTRICITY": 0.0030413, "INCLINATION": 82.9347, "RA_OF_ASC_NODE": 333.4127, "ARG_OF_PERICENTER": 223.8805, "MEAN_ANOMALY": 146.6858, "EPHEMERIS_TYPE": 0, "CLASSIFICATION_TYPE": "U", "NORAD_CAT_ID": 25590, "ELEMENT_SET_NO": 999, "REV_AT_EPOCH": 35309, "BSTAR": 6.9641e-05, "MEAN_MOTION_DOT": 8e-07, "MEAN_MOTION_DDOT": 0}, "tle": {"line1": "1 25590U 98076A   25361.17057705  .00000080  00000+0  69641-4 0  9997", "line2": "2 25590  82.9347 333.4127 0030413 223.8805 146.6858 13.73219116353090"}}, "geometry": {"type": "Point", "coordinates": [168.72590050449662, -65.11919492589256]}}, {"type": "Feature", "properties": {"norad_id": 26818, "name": "COSMOS 2378", "group": "musson", "lat": 7.050692867280509, "lon": -10.293764135883581, "alt_km": 1009.167176733331, "timestamp": "2025-12-27T10:28:59.064379+00:00", "meta": {"OBJECT_NAME": "COSMOS 2378", "OBJECT_ID": "2001-023A", "EPOCH": "2025-12-27T02:02:30.471360", "MEAN_MOTION": 13.74143194, "ECCENTRICITY": 0.0033314, "INCLINATION": 82.9272, "RA_OF_ASC_NODE": 349.0871, "ARG_OF_PERICENTER": 164.7741, "MEAN_ANOMALY": 263.6474, "EPHEMERIS_TYPE": 0, "CLASSIFICATION_TYPE": "U", "NORAD_CAT_ID": 26818, "ELEMENT_SET_NO": 999, "REV_AT_EPOCH": 23120, "BSTAR": 5.2726e-05, "MEAN_MOTION_DOT": 6.5e-07, "MEAN_MOTION_DDOT": 0}, "tle": {"line1": "1 26818U 01023A   25361.08507490  .00000065  00000+0  52726-4 0  9997", "line2": "2 26818  82.9272 349.0871 0033314 164.7741 263.6474 13.74143194231200"}}, "geometry": {"type": "Point", "coordinates": [-10.293764135883581, 7.050692867280509]}}, {"type": "Feature", "properties": {"norad_id": 27436, "name": "COSMOS 2389", "group": "musson", "lat": -82.44857559868974, "lon": -174.94210858840393, "alt_km": 1002.0266886692361, "timestamp": "2025-12-27T10:28:59.064392+00:00", "meta": {"OBJECT_NAME": "COSMOS 2389", "OBJECT_ID": "2002-026A", "EPOCH": "2025-12-27T04:30:05.705856", "MEAN_MOTION": 13.75156199, "ECCENTRICITY": 0.0046964, "INCLINATION": 82.9514, "RA_OF_ASC_NODE": 296.29, "ARG_OF_PERICENTER": 21.2647, "MEAN_ANOMALY": 93.3926, "EPHEMERIS_TYPE": 0, "CLASSIFICATION_TYPE": "U", "NORAD_CAT_ID": 27436, "ELEMENT_SET_NO": 999, "REV_AT_EPOCH": 18347, "BSTAR": 6.5952e-05, "MEAN_MOTION_DOT": 7.9e-07, "MEAN_MOTION_DDOT": 0}, "tle": {"line1": "1 27436U 02026A   25361.18756604  .00000079  00000+0  65952-4 0  9992", "line2": "2 27436  82.9514 296.2900 0046964  21.2647  93.3926 13.75156199183474"}}, "geometry": {"type": "Point", "coordinates": [-174.94210858840393, -82.44857559868974]}}, {"type": "Feature", "properties": {"norad_id": 27818, "name": "COSMOS 2398", "group": "musson", "lat": 72.66820498811231, "lon": -74.76350947421261, "alt_km": 959.9696250049165, "timestamp": "2025-12-27T10:28:59.064404+00:00", "meta": {"OBJECT_NAME": "COSMOS 2398", "OBJECT_ID": "2003-023A", "EPOCH": "2025-12-27T03:56:00.400992", "MEAN_MOTION": 13.72387343, "ECCENTRICITY": 0.003268, "INCLINATION": 82.9481, "RA_OF_ASC_NODE": 262.0696, "ARG_OF_PERICENTER": 73.3808, "MEAN_ANOMALY": 93.2309, "EPHEMERIS_TYPE": 0, "CLASSIFICATION_TYPE": "U", "NORAD_CAT_ID": 27818, "ELEMENT_SET_NO": 999, "REV_AT_EPOCH": 13014, "BSTAR": 6.3449e-05, "MEAN_MOTION_DOT": 7.4e-07, "MEAN_MOTION_DDOT": 0}, "tle": {"line1": "1 27818U 03023A   25361.16389353  .00000074  00000+0  63449-4 0  9999", "line2": "2 27818  82.9481 262.0696 0032680  73.3808  93.2309 13.72387343130145"}}, "geometry": {"type": "Point", "coordinates": [-74.76350947421261, 72.66820498811231]}}, {"type": "Feature", "properties": {"norad_id": 28380, "name": "COSMOS 2407", "group": "musson", "lat": 61.28260487968796, "lon": 8.974696534324375, "alt_km": 977.6125168946173, "timestamp": "2025-12-27T10:28:59.064415+00:00", "meta": {"OBJECT_NAME": "COSMOS 2407", "OBJECT_ID": "2004-028A", "EPOCH": "2025-12-27T01:43:56.683776", "MEAN_MOTION": 13.76315244, "ECCENTRICITY": 0.0039606, "INCLINATION": 82.9593, "RA_OF_ASC_NODE": 202.2807, "ARG_OF_PERICENTER": 15.5974, "MEAN_ANOMALY": 96.2923, "EPHEMERIS_TYPE": 0, "CLASSIFICATION_TYPE": "U", "NORAD_CAT_ID": 28380, "ELEMENT_SET_NO": 999, "REV_AT_EPOCH": 7620, "BSTAR": 4.7452e-05, "MEAN_MOTION_DOT": 6.2e-07, "MEAN_MOTION_DDOT": 0}, "tle": {"line1": "1 28380U 04028A   25361.07218384  .00000062  00000+0  47452-4 0  9998", "line2": "2 28380  82.9593 202.2807 0039606  15.5974  96.2923 13.76315244 76207"}}, "geometry": {"type": "Point", "coordinates": [8.974696534324375, 61.28260487968796]}}, {"type": "Feature", "properties": {"norad_id": 28521, "name": "COSMOS 2414", "group": "musson", "lat": -82.2161417105767, "lon": 108.66699380144836, "alt_km": 973.534000561981, "timestamp": "2025-12-27T10:28:59.064426+00:00", "meta": {"OBJECT_NAME": "COSMOS 2414", "OBJECT_ID": "2005-002A", "EPOCH": "2025-12-26T22:47:28.650624", "MEAN_MOTION": 13.8790478, "ECCENTRICITY": 0.0041442, "INCLINATION": 82.9489, "RA_OF_ASC_NODE": 173.9145, "ARG_OF_PERICENTER": 100.34, "MEAN_ANOMALY": 260.2439, "EPHEMERIS_TYPE": 0, "CLASSIFICATION_TYPE": "U", "NORAD_CAT_ID": 28521, "ELEMENT_SET_NO": 999, "REV_AT_EPOCH": 5992, "BSTAR": 5.844e-05, "MEAN_MOTION_DOT": 8.6e-07, "MEAN_MOTION_DDOT": 0}, "tle": {"line1": "1 28521U 05002A   25360.94963716  .00000086  00000+0  58440-4 0  9994", "line2": "2 28521  82.9489 173.9145 0041442 100.3400 260.2439 13.87904780 59921"}}, "geometry": {"type": "Point", "coordinates": [108.66699380144836, -82.2161417105767]}}, {"type": "Feature", "properties": {"norad_id": 32052, "name": "COSMOS 2429", "group": "musson", "lat": 82.03117900391445, "lon": 90.82411670914439, "alt_km": 976.7676306847625, "timestamp": "2025-12-27T10:28:59.064437+00:00", "meta": {"OBJECT_NAME": "COSMOS 2429", "OBJECT_ID": "2007-038A", "EPOCH": "2025-12-27T04:47:31.532064", "MEAN_MOTION": 13.75150845, "ECCENTRICITY": 0.0038365, "INCLINATION": 82.981, "RA_OF_ASC_NODE": 332.6487, "ARG_OF_PERICENTER": 357.9707, "MEAN_ANOMALY": 2.1287, "EPHEMERIS_TYPE": 0, "CLASSIFICATION_TYPE": "U", "NORAD_CAT_ID": 32052, "ELEMENT_SET_NO": 999, "REV_AT_EPOCH": 91801, "BSTAR": 6.5136e-05, "MEAN_MOTION_DOT": 7.8e-07, "MEAN_MOTION_DDOT": 0}, "tle": {"line1": "1 32052U 07038A   25361.19967051  .00000078  00000+0  65136-4 0  9994", "line2": "2 32052  82.9810 332.6487 0038365 357.9707   2.1287 13.75150845918016"}}, "geometry": {"type": "Point", "coordinates": [90.82411670914439, 82.03117900391445]}}, {"type": "Feature", "properties": {"norad_id": 35635, "name": "COSMOS 2454", "group": "musson", "lat": 69.39193263206226, "lon": 176.69998712443802, "alt_km": 910.4728359710052, "timestamp": "2025-12-27T10:28:59.064448+00:00", "meta": {"OBJECT_NAME": "COSMOS 2454", "OBJECT_ID": "2009-039A", "EPOCH": "2025-12-27T04:04:13.624896", "MEAN_MOTION": 13.8993039, "ECCENTRICITY": 0.0019891, "INCLINATION": 82.9559, "RA_OF_ASC_NODE": 157.7063, "ARG_OF_PERICENTER": 34.8041, "MEAN_ANOMALY": 139.4805, "EPHEMERIS_TYPE": 0, "CLASSIFICATION_TYPE": "U", "NORAD_CAT_ID": 35635, "ELEMENT_SET_NO": 999, "REV_AT_EPOCH": 83350, "BSTAR": 5.8932e-05, "MEAN_MOTION_DOT": 8.9e-07, "MEAN_MOTION_DDOT": 0}, "tle": {"line1": "1 35635U 09039A   25361.16960214  .00000089  00000+0  58932-4 0  9996", "line2": "2 35635  82.9559 157.7063 0019891  34.8041 139.4805 13.89930390833503"}}, "geometry": {"type": "Point", "coordinates": [176.69998712443802, 69.39193263206226]}}, {"type": "Feature", "properties": {"norad_id": 36519, "name": "COSMOS 2463", "group": "musson", "lat": -44.344661905249296, "lon": -157.15198336332432, "alt_km": 976.331157088518, "timestamp": "2025-12-27T10:28:59.064459+00:00", "meta": {"OBJECT_NAME": "COSMOS 2463", "OBJECT_ID": "2010-017A", "EPOCH": "2025-12-27T04:29:02.150016", "MEAN_MOTION": 13.71650374, "ECCENTRICITY": 0.0034857, "INCLINATION": 82.9602, "RA_OF_ASC_NODE": 16.0951, "ARG_OF_PERICENTER": 246.474, "MEAN_ANOMALY": 184.7384, "EPHEMERIS_TYPE": 0, "CLASSIFICATION_TYPE": "U", "NORAD_CAT_ID": 36519, "ELEMENT_SET_NO": 999, "REV_AT_EPOCH": 78435, "BSTAR": 3.7871e-05, "MEAN_MOTION_DOT": 4.9e-07, "MEAN_MOTION_DDOT": 0}, "tle": {"line1": "1 36519U 10017A   25361.18683044  .00000049  00000+0  37871-4 0  9996", "line2": "2 36519  82.9602  16.0951 0034857 246.4740 184.7384 13.71650374784358"}}, "geometry": {"type": "Point", "coordinates": [-157.15198336332432, -44.344661905249296]}}]}